{
  "type": "FeatureCollection",
  "name": "pollachi_buildings",
  "crs": {
    "type": "name",
    "properties": {
      "name": "urn:ogc:def:crs:OGC:1.3:CRS84"
    }
  },
  "features": [
    {
      "type": "Feature",
      "properties": {
        "building": "commercial",
        "height": "12.0m",
        "building:levels": "4"
      },
      "geometry": {
        "type": "Polygon",
        "coordinates": [
          [
            [
              76.9818181,
              10.6485748
            ],
            [
              76.9817349,
              10.6491745
            ],
            [
              76.9818746,
              10.6491932
            ],
            [
              76.9819578,
              10.6485935
            ],
            [
              76.9818181,
              10.6485748
            ]
          ]
        ]
      }
    },
    {
      "type": "Feature",
      "properties": {
        "building": "yes"
      },
      "geometry": {
        "type": "Polygon",
        "coordinates": [
          [
            [
              76.9832094,
              10.6495764
            ],
            [
              76.9833393,
              10.6496558
            ],
            [
              76.9833078,
              10.6497056
            ],
            [
              76.9833902,
              10.649756
            ],
            [
              76.9834217,
              10.6497062
            ],
            [
              76.9835567,
              10.6497886
            ],
            [
              76.9835993,
              10.6497212
            ],
            [
              76.983252,
              10.649509
            ],
            [
              76.9832094,
              10.6495764
            ]
          ]
        ]
      }
    },
    {
      "type": "Feature",
      "properties": {
        "building": "yes"
      },
      "geometry": {
        "type": "Polygon",
        "coordinates": [
          [
            [
              76.9823162,
              10.6492015
            ],
            [
              76.98231,
              10.6492597
            ],
            [
              76.9823984,
              10.6492688
            ],
            [
              76.9824267,
              10.6490032
            ],
            [
              76.9823383,
              10.6489941
            ],
            [
              76.9823299,
              10.6490731
            ],
            [
              76.9822602,
              10.6490659
            ],
            [
              76.9822639,
              10.6490314
            ],
            [
              76.9822289,
              10.6490278
            ],
            [
              76.9822344,
              10.648976
            ],
            [
              76.9821046,
              10.6489627
            ],
            [
              76.9820762,
              10.6492291
            ],
            [
              76.982241,
              10.6492461
            ],
            [
              76.9822466,
              10.6491943
            ],
            [
              76.9823162,
              10.6492015
            ]
          ]
        ]
      }
    },
    {
      "type": "Feature",
      "properties": {
        "building": "house",
        "building:levels": "2"
      },
      "geometry": {
        "type": "Polygon",
        "coordinates": [
          [
            [
              76.9826393,
              10.649419
            ],
            [
              76.9823307,
              10.6493165
            ],
            [
              76.9823027,
              10.6493979
            ],
            [
              76.9826113,
              10.6495004
            ],
            [
              76.9826393,
              10.649419
            ]
          ]
        ]
      }
    },
    {
      "type": "Feature",
      "properties": {
        "building": "yes"
      },
      "geometry": {
        "type": "Polygon",
        "coordinates": [
          [
            [
              76.982655,
              10.6495097
            ],
            [
              76.9831311,
              10.6496679
            ],
            [
              76.983157,
              10.6495926
            ],
            [
              76.9826809,
              10.6494345
            ],
            [
              76.982655,
              10.6495097
            ]
          ]
        ]
      }
    },
    {
      "type": "Feature",
      "properties": {
        "building": "residential",
        "building:levels": "3"
      },
      "geometry": {
        "type": "Polygon",
        "coordinates": [
          [
            [
              77.0060191,
              10.668536
            ],
            [
              77.0061385,
              10.668537
            ],
            [
              77.0061396,
              10.6684082
            ],
            [
              77.0060201,
              10.6684073
            ],
            [
              77.0060191,
              10.668536
            ]
          ]
        ]
      }
    },
    {
      "type": "Feature",
      "properties": {
        "building": "house",
        "building:levels": "2"
      },
      "geometry": {
        "type": "Polygon",
        "coordinates": [
          [
            [
              77.0096594,
              10.6586853
            ],
            [
              77.0097342,
              10.6587765
            ],
            [
              77.0099384,
              10.6586147
            ],
            [
              77.0098425,
              10.6584977
            ],
            [
              77.0096716,
              10.6586331
            ],
            [
              77.0096013,
              10.6585474
            ],
            [
              77.0097473,
              10.6584318
            ],
            [
              77.0096625,
              10.6583285
            ],
            [
              77.0095093,
              10.65845
            ],
            [
              77.0095336,
              10.6584796
            ],
            [
              77.0095076,
              10.6585002
            ],
            [
              77.0096594,
              10.6586853
            ]
          ]
        ]
      }
    },
    {
      "type": "Feature",
      "properties": {
        "building": "commercial",
        "height": "12.0m",
        "building:levels": "4"
      },
      "geometry": {
        "type": "Polygon",
        "coordinates": [
          [
            [
              77.0068578,
              10.6682876
            ],
            [
              77.007155,
              10.668322
            ],
            [
              77.0071738,
              10.6681651
            ],
            [
              77.0068766,
              10.6681308
            ],
            [
              77.0068578,
              10.6682876
            ]
          ]
        ]
      }
    },
    {
      "type": "Feature",
      "properties": {
        "building": "yes"
      },
      "geometry": {
        "type": "Polygon",
        "coordinates": [
          [
            [
              77.0057548,
              10.664459
            ],
            [
              77.0057648,
              10.664291
            ],
            [
              77.0056538,
              10.6642845
            ],
            [
              77.0056437,
              10.6644526
            ],
            [
              77.0057548,
              10.664459
            ]
          ]
        ]
      }
    },
    {
      "type": "Feature",
      "properties": {
        "building": "house",
        "building:levels": "2"
      },
      "geometry": {
        "type": "Polygon",
        "coordinates": [
          [
            [
              77.0099587,
              10.6633184
            ],
            [
              77.010298,
              10.6633356
            ],
            [
              77.0103038,
              10.6632242
            ],
            [
              77.0099645,
              10.6632071
            ],
            [
              77.0099587,
              10.6633184
            ]
          ]
        ]
      }
    },
    {
      "type": "Feature",
      "properties": {
        "building": "residential",
        "building:levels": "3"
      },
      "geometry": {
        "type": "Polygon",
        "coordinates": [
          [
            [
              77.008958,
              10.6628432
            ],
            [
              77.0091385,
              10.6628529
            ],
            [
              77.0091519,
              10.6626131
            ],
            [
              77.0089714,
              10.6626033
            ],
            [
              77.008958,
              10.6628432
            ]
          ]
        ]
      }
    },
    {
      "type": "Feature",
      "properties": {
        "building": "yes"
      },
      "geometry": {
        "type": "Polygon",
        "coordinates": [
          [
            [
              77.0125897,
              10.6621434
            ],
            [
              77.0126123,
              10.6622694
            ],
            [
              77.0126807,
              10.6622575
            ],
            [
              77.0126581,
              10.6621315
            ],
            [
              77.0125897,
              10.6621434
            ]
          ]
        ]
      }
    },
    {
      "type": "Feature",
      "properties": {
        "building": "house",
        "building:levels": "2"
      },
      "geometry": {
        "type": "Polygon",
        "coordinates": [
          [
            [
              77.0112714,
              10.6579272
            ],
            [
              77.0114377,
              10.6579114
            ],
            [
              77.0114128,
              10.6576579
            ],
            [
              77.0112465,
              10.6576737
            ],
            [
              77.0112714,
              10.6579272
            ]
          ]
        ]
      }
    },
    {
      "type": "Feature",
      "properties": {
        "building": "yes"
      },
      "geometry": {
        "type": "Polygon",
        "coordinates": [
          [
            [
              77.0049897,
              10.6647924
            ],
            [
              77.0050982,
              10.6647994
            ],
            [
              77.0051142,
              10.6645555
            ],
            [
              77.0050058,
              10.6645486
            ],
            [
              77.0049897,
              10.6647924
            ]
          ]
        ]
      }
    },
    {
      "type": "Feature",
      "properties": {
        "building": "commercial",
        "height": "12.0m",
        "building:levels": "4"
      },
      "geometry": {
        "type": "Polygon",
        "coordinates": [
          [
            [
              76.9996149,
              10.663017
            ],
            [
              76.9998699,
              10.6629389
            ],
            [
              76.9998425,
              10.6628524
            ],
            [
              76.9996515,
              10.6629109
            ],
            [
              76.9995833,
              10.6626958
            ],
            [
              76.9997603,
              10.6626416
            ],
            [
              76.9997168,
              10.6625041
            ],
            [
              76.9994757,
              10.6625778
            ],
            [
              76.9996149,
              10.663017
            ]
          ]
        ]
      }
    },
    {
      "type": "Feature",
      "properties": {
        "building": "residential",
        "building:levels": "3"
      },
      "geometry": {
        "type": "Polygon",
        "coordinates": [
          [
            [
              77.0079508,
              10.6744455
            ],
            [
              77.0080709,
              10.6743671
            ],
            [
              77.0081453,
              10.6743823
            ],
            [
              77.0082385,
              10.6745042
            ],
            [
              77.0082942,
              10.6744666
            ],
            [
              77.0083029,
              10.6744752
            ],
            [
              77.0083237,
              10.6744607
            ],
            [
              77.0083163,
              10.6744482
            ],
            [
              77.0083683,
              10.6744073
            ],
            [
              77.0082301,
              10.6742225
            ],
            [
              77.0081922,
              10.6742442
            ],
            [
              77.0081886,
              10.6742146
            ],
            [
              77.0081829,
              10.6741994
            ],
            [
              77.0081743,
              10.6741892
            ],
            [
              77.0081589,
              10.6741764
            ],
            [
              77.0081394,
              10.6741688
            ],
            [
              77.0081222,
              10.6741684
            ],
            [
              77.0081034,
              10.674175
            ],
            [
              77.0080846,
              10.6741899
            ],
            [
              77.0080622,
              10.6742215
            ],
            [
              77.0080343,
              10.6741852
            ],
            [
              77.0078489,
              10.6743081
            ],
            [
              77.0078915,
              10.6743656
            ],
            [
              77.0078788,
              10.6743757
            ],
            [
              77.0078933,
              10.674398
            ],
            [
              77.0079093,
              10.6743885
            ],
            [
              77.0079508,
              10.6744455
            ]
          ]
        ]
      }
    },
    {
      "type": "Feature",
      "properties": {
        "building": "yes"
      },
      "geometry": {
        "type": "Polygon",
        "coordinates": [
          [
            [
              77.0158271,
              10.6663937
            ],
            [
              77.0159026,
              10.6663922
            ],
            [
              77.0158999,
              10.6662657
            ],
            [
              77.0158245,
              10.6662672
            ],
            [
              77.0158271,
              10.6663937
            ]
          ]
        ]
      }
    },
    {
      "type": "Feature",
      "properties": {
        "building": "yes"
      },
      "geometry": {
        "type": "Polygon",
        "coordinates": [
          [
            [
              77.0086214,
              10.6664675
            ],
            [
              77.0082089,
              10.6664182
            ],
            [
              77.0081847,
              10.6666133
            ],
            [
              77.0085973,
              10.6666626
            ],
            [
              77.0086214,
              10.6664675
            ]
          ]
        ]
      }
    },
    {
      "type": "Feature",
      "properties": {
        "building": "house",
        "building:levels": "2"
      },
      "geometry": {
        "type": "Polygon",
        "coordinates": [
          [
            [
              77.012229,
              10.6626363
            ],
            [
              77.0122772,
              10.6628116
            ],
            [
              77.0123446,
              10.6627937
            ],
            [
              77.0122963,
              10.6626184
            ],
            [
              77.012229,
              10.6626363
            ]
          ]
        ]
      }
    },
    {
      "type": "Feature",
      "properties": {
        "building": "yes"
      },
      "geometry": {
        "type": "Polygon",
        "coordinates": [
          [
            [
              77.0033761,
              10.6626856
            ],
            [
              77.003471,
              10.6626859
            ],
            [
              77.0034719,
              10.6624379
            ],
            [
              77.003377,
              10.6624376
            ],
            [
              77.0033761,
              10.6626856
            ]
          ]
        ]
      }
    },
    {
      "type": "Feature",
      "properties": {
        "building": "residential",
        "building:levels": "3"
      },
      "geometry": {
        "type": "Polygon",
        "coordinates": [
          [
            [
              77.0081064,
              10.668107
            ],
            [
              77.0082273,
              10.668113
            ],
            [
              77.0082407,
              10.6678507
            ],
            [
              77.0081198,
              10.6678448
            ],
            [
              77.0081064,
              10.668107
            ]
          ]
        ]
      }
    },
    {
      "type": "Feature",
      "properties": {
        "building": "commercial",
        "height": "12.0m",
        "building:levels": "4"
      },
      "geometry": {
        "type": "Polygon",
        "coordinates": [
          [
            [
              77.0104668,
              10.6635074
            ],
            [
              77.0106188,
              10.6634866
            ],
            [
              77.010604,
              10.6633825
            ],
            [
              77.010452,
              10.6634033
            ],
            [
              77.0104668,
              10.6635074
            ]
          ]
        ]
      }
    },
    {
      "type": "Feature",
      "properties": {
        "building": "yes"
      },
      "geometry": {
        "type": "Polygon",
        "coordinates": [
          [
            [
              77.0095561,
              10.6627997
            ],
            [
              77.0097573,
              10.6628014
            ],
            [
              77.0097587,
              10.6626512
            ],
            [
              77.0095575,
              10.6626495
            ],
            [
              77.0095561,
              10.6627997
            ]
          ]
        ]
      }
    },
    {
      "type": "Feature",
      "properties": {
        "building": "yes"
      },
      "geometry": {
        "type": "Polygon",
        "coordinates": [
          [
            [
              77.0124864,
              10.6623653
            ],
            [
              77.0126107,
              10.6623351
            ],
            [
              77.0125757,
              10.6621962
            ],
            [
              77.0124514,
              10.6622264
            ],
            [
              77.0124864,
              10.6623653
            ]
          ]
        ]
      }
    },
    {
      "type": "Feature",
      "properties": {
        "building": "house",
        "building:levels": "2"
      },
      "geometry": {
        "type": "Polygon",
        "coordinates": [
          [
            [
              76.9951383,
              10.6688164
            ],
            [
              76.9952714,
              10.6688238
            ],
            [
              76.995276,
              10.6687442
            ],
            [
              76.9951429,
              10.6687368
            ],
            [
              76.9951383,
              10.6688164
            ]
          ]
        ]
      }
    },
    {
      "type": "Feature",
      "properties": {
        "building": "residential",
        "building:levels": "3"
      },
      "geometry": {
        "type": "Polygon",
        "coordinates": [
          [
            [
              77.0048685,
              10.6603491
            ],
            [
              77.0050056,
              10.6603483
            ],
            [
              77.0050042,
              10.6601098
            ],
            [
              77.0048671,
              10.6601105
            ],
            [
              77.0048685,
              10.6603491
            ]
          ]
        ]
      }
    },
    {
      "type": "Feature",
      "properties": {
        "building": "yes"
      },
      "geometry": {
        "type": "Polygon",
        "coordinates": [
          [
            [
              77.0128471,
              10.6626153
            ],
            [
              77.0128295,
              10.6626202
            ],
            [
              77.0128704,
              10.6627644
            ],
            [
              77.0131546,
              10.6626865
            ],
            [
              77.0130791,
              10.6624206
            ],
            [
              77.0130018,
              10.6624418
            ],
            [
              77.012986,
              10.6623863
            ],
            [
              77.0127968,
              10.6624382
            ],
            [
              77.0128471,
              10.6626153
            ]
          ]
        ]
      }
    },
    {
      "type": "Feature",
      "properties": {
        "building": "house",
        "building:levels": "2"
      },
      "geometry": {
        "type": "Polygon",
        "coordinates": [
          [
            [
              77.0058413,
              10.6651335
            ],
            [
              77.0059487,
              10.6651335
            ],
            [
              77.0059487,
              10.6649757
            ],
            [
              77.0058413,
              10.6649757
            ],
            [
              77.0058413,
              10.6651335
            ]
          ]
        ]
      }
    },
    {
      "type": "Feature",
      "properties": {
        "building": "commercial",
        "height": "12.0m",
        "building:levels": "4"
      },
      "geometry": {
        "type": "Polygon",
        "coordinates": [
          [
            [
              77.0148266,
              10.66316
            ],
            [
              77.0149996,
              10.6630315
            ],
            [
              77.0150473,
              10.6630877
            ],
            [
              77.0151097,
              10.6630365
            ],
            [
              77.0149776,
              10.662881
            ],
            [
              77.0149152,
              10.6629322
            ],
            [
              77.0149644,
              10.6629901
            ],
            [
              77.0147908,
              10.6631192
            ],
            [
              77.0147888,
              10.6631168
            ],
            [
              77.0147516,
              10.6631483
            ],
            [
              77.0147932,
              10.663205
            ],
            [
              77.0148213,
              10.6632729
            ],
            [
              77.0151821,
              10.6631621
            ],
            [
              77.0151597,
              10.6630916
            ],
            [
              77.0148491,
              10.6631869
            ],
            [
              77.0148266,
              10.66316
            ]
          ]
        ]
      }
    },
    {
      "type": "Feature",
      "properties": {
        "building": "yes"
      },
      "geometry": {
        "type": "Polygon",
        "coordinates": [
          [
            [
              77.0073208,
              10.6661827
            ],
            [
              77.0073205,
              10.6662518
            ],
            [
              77.0073847,
              10.6662521
            ],
            [
              77.0073851,
              10.666183
            ],
            [
              77.0073208,
              10.6661827
            ]
          ]
        ]
      }
    },
    {
      "type": "Feature",
      "properties": {
        "building": "residential",
        "building:levels": "3"
      },
      "geometry": {
        "type": "Polygon",
        "coordinates": [
          [
            [
              77.0103432,
              10.6642609
            ],
            [
              77.0104767,
              10.6642625
            ],
            [
              77.0104791,
              10.6640645
            ],
            [
              77.0103455,
              10.664063
            ],
            [
              77.0103432,
              10.6642609
            ]
          ]
        ]
      }
    },
    {
      "type": "Feature",
      "properties": {
        "building": "yes"
      },
      "geometry": {
        "type": "Polygon",
        "coordinates": [
          [
            [
              77.0074204,
              10.6571847
            ],
            [
              77.0074039,
              10.6571861
            ],
            [
              77.0073973,
              10.6571096
            ],
            [
              77.0073347,
              10.6571148
            ],
            [
              77.007343,
              10.6572117
            ],
            [
              77.0073586,
              10.6572104
            ],
            [
              77.0073647,
              10.6572808
            ],
            [
              77.0075714,
              10.6572613
            ],
            [
              77.0075658,
              10.6571701
            ],
            [
              77.0075057,
              10.6571753
            ],
            [
              77.0074992,
              10.6570993
            ],
            [
              77.0074137,
              10.6571064
            ],
            [
              77.0074204,
              10.6571847
            ]
          ]
        ]
      }
    },
    {
      "type": "Feature",
      "properties": {
        "building": "yes"
      },
      "geometry": {
        "type": "Polygon",
        "coordinates": [
          [
            [
              77.0030038,
              10.6624498
            ],
            [
              77.0030995,
              10.6624516
            ],
            [
              77.0031016,
              10.6623498
            ],
            [
              77.0030058,
              10.6623479
            ],
            [
              77.0030038,
              10.6624498
            ]
          ]
        ]
      }
    },
    {
      "type": "Feature",
      "properties": {
        "building": "house",
        "building:levels": "2"
      },
      "geometry": {
        "type": "Polygon",
        "coordinates": [
          [
            [
              77.0004686,
              10.6595884
            ],
            [
              77.0006823,
              10.659631
            ],
            [
              77.0007016,
              10.6595374
            ],
            [
              77.0006017,
              10.6595175
            ],
            [
              77.0006128,
              10.6594634
            ],
            [
              77.000499,
              10.6594408
            ],
            [
              77.0004686,
              10.6595884
            ]
          ]
        ]
      }
    },
    {
      "type": "Feature",
      "properties": {
        "building": "yes"
      },
      "geometry": {
        "type": "Polygon",
        "coordinates": [
          [
            [
              76.9820826,
              10.6522399
            ],
            [
              76.9821452,
              10.6522519
            ],
            [
              76.9821671,
              10.652141
            ],
            [
              76.9821045,
              10.652129
            ],
            [
              76.9821033,
              10.6521352
            ],
            [
              76.9819676,
              10.6521102
            ],
            [
              76.9819563,
              10.6521699
            ],
            [
              76.9820726,
              10.6521913
            ],
            [
              76.9820875,
              10.6522153
            ],
            [
              76.9820826,
              10.6522399
            ]
          ]
        ]
      }
    },
    {
      "type": "Feature",
      "properties": {
        "building": "commercial",
        "height": "12.0m",
        "building:levels": "4"
      },
      "geometry": {
        "type": "Polygon",
        "coordinates": [
          [
            [
              77.0099642,
              10.6631295
            ],
            [
              77.0100795,
              10.6631367
            ],
            [
              77.0100937,
              10.6629194
            ],
            [
              77.0099783,
              10.6629121
            ],
            [
              77.0099642,
              10.6631295
            ]
          ]
        ]
      }
    },
    {
      "type": "Feature",
      "properties": {
        "building": "house",
        "building:levels": "2"
      },
      "geometry": {
        "type": "Polygon",
        "coordinates": [
          [
            [
              77.0105376,
              10.663004
            ],
            [
              77.0108797,
              10.6629719
            ],
            [
              77.0108712,
              10.6628843
            ],
            [
              77.0105291,
              10.6629164
            ],
            [
              77.0105376,
              10.663004
            ]
          ]
        ]
      }
    },
    {
      "type": "Feature",
      "properties": {
        "building": "yes"
      },
      "geometry": {
        "type": "Polygon",
        "coordinates": [
          [
            [
              76.9882511,
              10.6733028
            ],
            [
              76.9882553,
              10.6731121
            ],
            [
              76.9883395,
              10.6731139
            ],
            [
              76.9883352,
              10.6733046
            ],
            [
              76.9882511,
              10.6733028
            ]
          ]
        ]
      }
    },
    {
      "type": "Feature",
      "properties": {
        "building": "yes"
      },
      "geometry": {
        "type": "Polygon",
        "coordinates": [
          [
            [
              76.9883556,
              10.67332
            ],
            [
              76.9883543,
              10.6731414
            ],
            [
              76.9884425,
              10.6731407
            ],
            [
              76.9884439,
              10.6733193
            ],
            [
              76.9883556,
              10.67332
            ]
          ]
        ]
      }
    },
    {
      "type": "Feature",
      "properties": {
        "building": "house",
        "building:levels": "2"
      },
      "geometry": {
        "type": "Polygon",
        "coordinates": [
          [
            [
              76.9881628,
              10.6726545
            ],
            [
              76.9881628,
              10.6724757
            ],
            [
              76.9882695,
              10.6724757
            ],
            [
              76.9882695,
              10.6726545
            ],
            [
              76.9881628,
              10.6726545
            ]
          ]
        ]
      }
    },
    {
      "type": "Feature",
      "properties": {
        "building": "residential",
        "building:levels": "3"
      },
      "geometry": {
        "type": "Polygon",
        "coordinates": [
          [
            [
              76.9885977,
              10.6726606
            ],
            [
              76.9886021,
              10.6724818
            ],
            [
              76.988843,
              10.6724875
            ],
            [
              76.9888386,
              10.6726663
            ],
            [
              76.9885977,
              10.6726606
            ]
          ]
        ]
      }
    },
    {
      "type": "Feature",
      "properties": {
        "building": "yes"
      },
      "geometry": {
        "type": "Polygon",
        "coordinates": [
          [
            [
              76.9877759,
              10.672993
            ],
            [
              76.9877781,
              10.6729271
            ],
            [
              76.9875749,
              10.6729206
            ],
            [
              76.9875728,
              10.6729866
            ],
            [
              76.9877759,
              10.672993
            ]
          ]
        ]
      }
    },
    {
      "type": "Feature",
      "properties": {
        "building": "commercial",
        "height": "12.0m",
        "building:levels": "4"
      },
      "geometry": {
        "type": "Polygon",
        "coordinates": [
          [
            [
              76.9876106,
              10.6723084
            ],
            [
              76.9877259,
              10.672307
            ],
            [
              76.9877276,
              10.6724473
            ],
            [
              76.9876123,
              10.6724487
            ],
            [
              76.9876106,
              10.6723084
            ]
          ]
        ]
      }
    },
    {
      "type": "Feature",
      "properties": {
        "building": "yes"
      },
      "geometry": {
        "type": "Polygon",
        "coordinates": [
          [
            [
              76.987966,
              10.6720419
            ],
            [
              76.9879649,
              10.6722243
            ],
            [
              76.988052,
              10.6722248
            ],
            [
              76.9880531,
              10.6720424
            ],
            [
              76.987966,
              10.6720419
            ]
          ]
        ]
      }
    },
    {
      "type": "Feature",
      "properties": {
        "building": "yes"
      },
      "geometry": {
        "type": "Polygon",
        "coordinates": [
          [
            [
              76.9873952,
              10.6720396
            ],
            [
              76.9873927,
              10.6722054
            ],
            [
              76.9874898,
              10.6722068
            ],
            [
              76.9874922,
              10.672041
            ],
            [
              76.9873952,
              10.6720396
            ]
          ]
        ]
      }
    },
    {
      "type": "Feature",
      "properties": {
        "building": "temple",
        "name": "Subramanya Swamy Temple Complex",
        "height": "14.0m",
        "building:levels": "4"
      },
      "geometry": {
        "type": "Polygon",
        "coordinates": [
          [
            [
              76.9787266,
              10.654356
            ],
            [
              76.9790999,
              10.6544066
            ],
            [
              76.9791385,
              10.6541609
            ],
            [
              76.9787585,
              10.6541102
            ],
            [
              76.9787266,
              10.654356
            ]
          ]
        ]
      }
    },
    {
      "type": "Feature",
      "properties": {
        "building": "school",
        "name": "Pollachi Higher Secondary School",
        "height": "11.5m",
        "building:levels": "3"
      },
      "geometry": {
        "type": "Polygon",
        "coordinates": [
          [
            [
              76.9803469,
              10.6486986
            ],
            [
              76.9804439,
              10.6487074
            ],
            [
              76.9805197,
              10.647793
            ],
            [
              76.9804236,
              10.6477787
            ],
            [
              76.9803469,
              10.6486986
            ]
          ]
        ]
      }
    },
    {
      "type": "Feature",
      "properties": {
        "building": "yes"
      },
      "geometry": {
        "type": "Polygon",
        "coordinates": [
          [
            [
              76.9790319,
              10.6532661
            ],
            [
              76.9791433,
              10.653266
            ],
            [
              76.9791472,
              10.6530316
            ],
            [
              76.9790349,
              10.6530326
            ],
            [
              76.9790319,
              10.6532661
            ]
          ]
        ]
      }
    },
    {
      "type": "Feature",
      "properties": {
        "building": "house",
        "building:levels": "2"
      },
      "geometry": {
        "type": "Polygon",
        "coordinates": [
          [
            [
              77.0011866,
              10.6535572
            ],
            [
              77.0011894,
              10.6534675
            ],
            [
              77.0011049,
              10.6534674
            ],
            [
              77.0010828,
              10.6534777
            ],
            [
              77.0010695,
              10.6534935
            ],
            [
              77.001063,
              10.6535096
            ],
            [
              77.0010655,
              10.653527
            ],
            [
              77.0010766,
              10.6535401
            ],
            [
              77.0010895,
              10.6535489
            ],
            [
              77.0011051,
              10.6535584
            ],
            [
              77.0011866,
              10.6535572
            ]
          ]
        ]
      }
    },
    {
      "type": "Feature",
      "properties": {
        "building": "commercial",
        "height": "12.0m",
        "building:levels": "4"
      },
      "geometry": {
        "type": "Polygon",
        "coordinates": [
          [
            [
              77.0169554,
              10.6437568
            ],
            [
              77.0169613,
              10.6438465
            ],
            [
              77.0169665,
              10.6439267
            ],
            [
              77.0169459,
              10.6439216
            ],
            [
              77.016943,
              10.6438807
            ],
            [
              77.0169254,
              10.643881
            ],
            [
              77.0169077,
              10.6438714
            ],
            [
              77.0168985,
              10.6438509
            ],
            [
              77.0169049,
              10.643833
            ],
            [
              77.0169182,
              10.6438209
            ],
            [
              77.0169367,
              10.643817
            ],
            [
              77.0169353,
              10.6437695
            ],
            [
              77.0169554,
              10.6437568
            ]
          ]
        ]
      }
    },
    {
      "type": "Feature",
      "properties": {
        "building": "residential",
        "building:levels": "3"
      },
      "geometry": {
        "type": "Polygon",
        "coordinates": [
          [
            [
              77.010744,
              10.6492154
            ],
            [
              77.0108836,
              10.6492113
            ],
            [
              77.0108827,
              10.649153
            ],
            [
              77.0107437,
              10.6491567
            ],
            [
              77.010744,
              10.6492154
            ]
          ]
        ]
      }
    },
    {
      "type": "Feature",
      "properties": {
        "building": "house",
        "building:levels": "2"
      },
      "geometry": {
        "type": "Polygon",
        "coordinates": [
          [
            [
              77.0106846,
              10.6517493
            ],
            [
              77.0106557,
              10.6520312
            ],
            [
              77.0104045,
              10.6520377
            ],
            [
              77.0104032,
              10.6517514
            ],
            [
              77.0106846,
              10.6517493
            ]
          ]
        ]
      }
    },
    {
      "type": "Feature",
      "properties": {
        "building": "yes"
      },
      "geometry": {
        "type": "Polygon",
        "coordinates": [
          [
            [
              77.0048246,
              10.6626945
            ],
            [
              77.0048539,
              10.6628307
            ],
            [
              77.0044071,
              10.6629234
            ],
            [
              77.0043778,
              10.6627872
            ],
            [
              77.0048246,
              10.6626945
            ]
          ]
        ]
      }
    },
    {
      "type": "Feature",
      "properties": {
        "building": "yes"
      },
      "geometry": {
        "type": "Polygon",
        "coordinates": [
          [
            [
              77.0043598,
              10.6616174
            ],
            [
              77.0045196,
              10.6616206
            ],
            [
              77.0045117,
              10.6620053
            ],
            [
              77.0043519,
              10.6620021
            ],
            [
              77.0043598,
              10.6616174
            ]
          ]
        ]
      }
    },
    {
      "type": "Feature",
      "properties": {
        "building": "house",
        "building:levels": "2"
      },
      "geometry": {
        "type": "Polygon",
        "coordinates": [
          [
            [
              76.99606,
              10.6626947
            ],
            [
              76.9967569,
              10.6625147
            ],
            [
              76.9968414,
              10.6628305
            ],
            [
              76.9967702,
              10.6628489
            ],
            [
              76.9967591,
              10.6628072
            ],
            [
              76.996723,
              10.6628165
            ],
            [
              76.996712,
              10.6627756
            ],
            [
              76.9967515,
              10.6627654
            ],
            [
              76.9967131,
              10.6626215
            ],
            [
              76.9964778,
              10.6626821
            ],
            [
              76.9964893,
              10.6627251
            ],
            [
              76.9964326,
              10.6627397
            ],
            [
              76.9964252,
              10.6627118
            ],
            [
              76.9962058,
              10.6627684
            ],
            [
              76.996275,
              10.6630271
            ],
            [
              76.9961375,
              10.6630626
            ],
            [
              76.9961137,
              10.6629735
            ],
            [
              76.9961332,
              10.6629684
            ],
            [
              76.99606,
              10.6626947
            ]
          ]
        ]
      }
    },
    {
      "type": "Feature",
      "properties": {
        "building": "residential",
        "building:levels": "3"
      },
      "geometry": {
        "type": "Polygon",
        "coordinates": [
          [
            [
              76.9968996,
              10.6626995
            ],
            [
              76.997171,
              10.6626304
            ],
            [
              76.9972994,
              10.6631169
            ],
            [
              76.9970279,
              10.6631861
            ],
            [
              76.9968996,
              10.6626995
            ]
          ]
        ]
      }
    },
    {
      "type": "Feature",
      "properties": {
        "building": "commercial",
        "height": "12.0m",
        "building:levels": "4"
      },
      "geometry": {
        "type": "Polygon",
        "coordinates": [
          [
            [
              76.9988296,
              10.6634353
            ],
            [
              76.998842,
              10.6635102
            ],
            [
              76.998427,
              10.6635766
            ],
            [
              76.9984146,
              10.6635017
            ],
            [
              76.9988296,
              10.6634353
            ]
          ]
        ]
      }
    },
    {
      "type": "Feature",
      "properties": {
        "building": "house",
        "building:levels": "2"
      },
      "geometry": {
        "type": "Polygon",
        "coordinates": [
          [
            [
              77.0021626,
              10.6624912
            ],
            [
              77.0025755,
              10.6624846
            ],
            [
              77.0025789,
              10.6626927
            ],
            [
              77.0025014,
              10.662694
            ],
            [
              77.0025009,
              10.6626648
            ],
            [
              77.002443,
              10.6626657
            ],
            [
              77.0024439,
              10.662718
            ],
            [
              77.0023055,
              10.6627203
            ],
            [
              77.0023045,
              10.6626593
            ],
            [
              77.0022341,
              10.6626604
            ],
            [
              77.0022346,
              10.6626865
            ],
            [
              77.0021658,
              10.6626876
            ],
            [
              77.0021626,
              10.6624912
            ]
          ]
        ]
      }
    },
    {
      "type": "Feature",
      "properties": {
        "building": "yes"
      },
      "geometry": {
        "type": "Polygon",
        "coordinates": [
          [
            [
              77.0037305,
              10.6625969
            ],
            [
              77.0037374,
              10.6622643
            ],
            [
              77.0038537,
              10.6622667
            ],
            [
              77.0038474,
              10.6625676
            ],
            [
              77.0037965,
              10.6625666
            ],
            [
              77.0037958,
              10.6625982
            ],
            [
              77.0037305,
              10.6625969
            ]
          ]
        ]
      }
    },
    {
      "type": "Feature",
      "properties": {
        "building": "yes"
      },
      "geometry": {
        "type": "Polygon",
        "coordinates": [
          [
            [
              76.9979191,
              10.6600124
            ],
            [
              76.997965,
              10.6598888
            ],
            [
              76.9982295,
              10.6599838
            ],
            [
              76.9981712,
              10.6601406
            ],
            [
              76.9981111,
              10.660119
            ],
            [
              76.9981234,
              10.6600858
            ],
            [
              76.9979191,
              10.6600124
            ]
          ]
        ]
      }
    },
    {
      "type": "Feature",
      "properties": {
        "building": "residential",
        "building:levels": "3"
      },
      "geometry": {
        "type": "Polygon",
        "coordinates": [
          [
            [
              76.9977085,
              10.6588426
            ],
            [
              76.9977902,
              10.6588414
            ],
            [
              76.9977928,
              10.6590043
            ],
            [
              76.997711,
              10.6590055
            ],
            [
              76.9977085,
              10.6588426
            ]
          ]
        ]
      }
    },
    {
      "type": "Feature",
      "properties": {
        "building": "yes"
      },
      "geometry": {
        "type": "Polygon",
        "coordinates": [
          [
            [
              76.9969487,
              10.6587935
            ],
            [
              76.9968452,
              10.6587949
            ],
            [
              76.9968434,
              10.6586631
            ],
            [
              76.9969468,
              10.6586617
            ],
            [
              76.9969487,
              10.6587935
            ]
          ]
        ]
      }
    },
    {
      "type": "Feature",
      "properties": {
        "building": "yes"
      },
      "geometry": {
        "type": "Polygon",
        "coordinates": [
          [
            [
              76.9978394,
              10.6577374
            ],
            [
              76.9977545,
              10.6577409
            ],
            [
              76.9977462,
              10.6575442
            ],
            [
              76.9978311,
              10.6575408
            ],
            [
              76.9978394,
              10.6577374
            ]
          ]
        ]
      }
    },
    {
      "type": "Feature",
      "properties": {
        "building": "commercial",
        "height": "12.0m",
        "building:levels": "4"
      },
      "geometry": {
        "type": "Polygon",
        "coordinates": [
          [
            [
              77.0109331,
              10.6622307
            ],
            [
              77.0110069,
              10.6622273
            ],
            [
              77.0110214,
              10.6625267
            ],
            [
              77.0109475,
              10.6625301
            ],
            [
              77.0109331,
              10.6622307
            ]
          ]
        ]
      }
    },
    {
      "type": "Feature",
      "properties": {
        "building": "yes"
      },
      "geometry": {
        "type": "Polygon",
        "coordinates": [
          [
            [
              77.0183512,
              10.6669921
            ],
            [
              77.0184776,
              10.6671654
            ],
            [
              77.0182845,
              10.6673015
            ],
            [
              77.0181581,
              10.6671282
            ],
            [
              77.0183512,
              10.6669921
            ]
          ]
        ]
      }
    },
    {
      "type": "Feature",
      "properties": {
        "building": "residential",
        "building:levels": "3"
      },
      "geometry": {
        "type": "Polygon",
        "coordinates": [
          [
            [
              77.0227135,
              10.6681025
            ],
            [
              77.0228957,
              10.6680973
            ],
            [
              77.0228994,
              10.6682211
            ],
            [
              77.0227171,
              10.6682263
            ],
            [
              77.0227135,
              10.6681025
            ]
          ]
        ]
      }
    },
    {
      "type": "Feature",
      "properties": {
        "building": "house",
        "building:levels": "2"
      },
      "geometry": {
        "type": "Polygon",
        "coordinates": [
          [
            [
              77.0224213,
              10.6679664
            ],
            [
              77.0226144,
              10.6679638
            ],
            [
              77.0226166,
              10.6681205
            ],
            [
              77.0224234,
              10.6681231
            ],
            [
              77.0224213,
              10.6679664
            ]
          ]
        ]
      }
    },
    {
      "type": "Feature",
      "properties": {
        "building": "yes"
      },
      "geometry": {
        "type": "Polygon",
        "coordinates": [
          [
            [
              77.0252242,
              10.6732162
            ],
            [
              77.0252579,
              10.6731499
            ],
            [
              77.0254343,
              10.6732365
            ],
            [
              77.0254006,
              10.6733028
            ],
            [
              77.0252242,
              10.6732162
            ]
          ]
        ]
      }
    },
    {
      "type": "Feature",
      "properties": {
        "building": "yes"
      },
      "geometry": {
        "type": "Polygon",
        "coordinates": [
          [
            [
              77.0267836,
              10.6738638
            ],
            [
              77.0269068,
              10.6736737
            ],
            [
              77.0270099,
              10.6737383
            ],
            [
              77.0268867,
              10.6739283
            ],
            [
              77.0267836,
              10.6738638
            ]
          ]
        ]
      }
    },
    {
      "type": "Feature",
      "properties": {
        "building": "house",
        "building:levels": "2"
      },
      "geometry": {
        "type": "Polygon",
        "coordinates": [
          [
            [
              77.0271776,
              10.6769442
            ],
            [
              77.0272114,
              10.6762903
            ],
            [
              77.0272958,
              10.6762945
            ],
            [
              77.027262,
              10.6769484
            ],
            [
              77.0271776,
              10.6769442
            ]
          ]
        ]
      }
    },
    {
      "type": "Feature",
      "properties": {
        "building": "commercial",
        "height": "12.0m",
        "building:levels": "4"
      },
      "geometry": {
        "type": "Polygon",
        "coordinates": [
          [
            [
              77.0291909,
              10.676282
            ],
            [
              77.0293502,
              10.6762869
            ],
            [
              77.0293365,
              10.6767109
            ],
            [
              77.0291771,
              10.6767059
            ],
            [
              77.0291909,
              10.676282
            ]
          ]
        ]
      }
    },
    {
      "type": "Feature",
      "properties": {
        "building": "yes"
      },
      "geometry": {
        "type": "Polygon",
        "coordinates": [
          [
            [
              77.0297681,
              10.6749944
            ],
            [
              77.0299473,
              10.6749849
            ],
            [
              77.0299549,
              10.6751215
            ],
            [
              77.0297757,
              10.6751311
            ],
            [
              77.0297681,
              10.6749944
            ]
          ]
        ]
      }
    },
    {
      "type": "Feature",
      "properties": {
        "building": "house",
        "building:levels": "2"
      },
      "geometry": {
        "type": "Polygon",
        "coordinates": [
          [
            [
              77.0295505,
              10.6746444
            ],
            [
              77.0297227,
              10.6746462
            ],
            [
              77.0297201,
              10.6748918
            ],
            [
              77.0295479,
              10.6748901
            ],
            [
              77.0295505,
              10.6746444
            ]
          ]
        ]
      }
    },
    {
      "type": "Feature",
      "properties": {
        "building": "yes"
      },
      "geometry": {
        "type": "Polygon",
        "coordinates": [
          [
            [
              77.0313322,
              10.6738639
            ],
            [
              77.0313433,
              10.6737703
            ],
            [
              77.0317244,
              10.6738138
            ],
            [
              77.0317133,
              10.6739074
            ],
            [
              77.0313322,
              10.6738639
            ]
          ]
        ]
      }
    },
    {
      "type": "Feature",
      "properties": {
        "building": "yes"
      },
      "geometry": {
        "type": "Polygon",
        "coordinates": [
          [
            [
              77.0304904,
              10.6748387
            ],
            [
              77.0303874,
              10.6748352
            ],
            [
              77.0303934,
              10.6746654
            ],
            [
              77.0304964,
              10.6746689
            ],
            [
              77.0304904,
              10.6748387
            ]
          ]
        ]
      }
    },
    {
      "type": "Feature",
      "properties": {
        "building": "residential",
        "building:levels": "3"
      },
      "geometry": {
        "type": "Polygon",
        "coordinates": [
          [
            [
              77.0264945,
              10.6736607
            ],
            [
              77.0265732,
              10.6734968
            ],
            [
              77.02665,
              10.6735324
            ],
            [
              77.0265713,
              10.6736963
            ],
            [
              77.0264945,
              10.6736607
            ]
          ]
        ]
      }
    },
    {
      "type": "Feature",
      "properties": {
        "building": "yes"
      },
      "geometry": {
        "type": "Polygon",
        "coordinates": [
          [
            [
              77.0283873,
              10.6697248
            ],
            [
              77.028292,
              10.6697255
            ],
            [
              77.028291,
              10.6695913
            ],
            [
              77.0283862,
              10.6695906
            ],
            [
              77.0283873,
              10.6697248
            ]
          ]
        ]
      }
    },
    {
      "type": "Feature",
      "properties": {
        "building": "commercial",
        "height": "12.0m",
        "building:levels": "4"
      },
      "geometry": {
        "type": "Polygon",
        "coordinates": [
          [
            [
              77.0071016,
              10.6712969
            ],
            [
              77.0073305,
              10.6712991
            ],
            [
              77.0073288,
              10.671469
            ],
            [
              77.0071026,
              10.6714668
            ],
            [
              77.0071029,
              10.6714352
            ],
            [
              77.0071002,
              10.6714352
            ],
            [
              77.0071016,
              10.6712969
            ]
          ]
        ]
      }
    },
    {
      "type": "Feature",
      "properties": {
        "building": "house",
        "building:levels": "2"
      },
      "geometry": {
        "type": "Polygon",
        "coordinates": [
          [
            [
              76.9835992,
              10.6510911
            ],
            [
              76.9836213,
              10.6509107
            ],
            [
              76.9839693,
              10.6509519
            ],
            [
              76.9839472,
              10.6511323
            ],
            [
              76.9835992,
              10.6510911
            ]
          ]
        ]
      }
    },
    {
      "type": "Feature",
      "properties": {
        "building": "yes"
      },
      "geometry": {
        "type": "Polygon",
        "coordinates": [
          [
            [
              76.9721559,
              10.6434486
            ],
            [
              76.9721559,
              10.6437122
            ],
            [
              76.9720727,
              10.6437122
            ],
            [
              76.9720727,
              10.6434486
            ],
            [
              76.9721559,
              10.6434486
            ]
          ]
        ]
      }
    },
    {
      "type": "Feature",
      "properties": {
        "building": "residential",
        "building:levels": "3"
      },
      "geometry": {
        "type": "Polygon",
        "coordinates": [
          [
            [
              76.9690955,
              10.6442155
            ],
            [
              76.9692242,
              10.6442123
            ],
            [
              76.9692283,
              10.6443703
            ],
            [
              76.9690996,
              10.6443735
            ],
            [
              76.9690955,
              10.6442155
            ]
          ]
        ]
      }
    },
    {
      "type": "Feature",
      "properties": {
        "building": "house",
        "building:levels": "2"
      },
      "geometry": {
        "type": "Polygon",
        "coordinates": [
          [
            [
              76.9714952,
              10.6445191
            ],
            [
              76.971591,
              10.6438738
            ],
            [
              76.971788,
              10.643902
            ],
            [
              76.9716922,
              10.6445473
            ],
            [
              76.9714952,
              10.6445191
            ]
          ]
        ]
      }
    },
    {
      "type": "Feature",
      "properties": {
        "building": "yes"
      },
      "geometry": {
        "type": "Polygon",
        "coordinates": [
          [
            [
              76.9692275,
              10.6451603
            ],
            [
              76.9690789,
              10.6451654
            ],
            [
              76.9690749,
              10.6450548
            ],
            [
              76.9692236,
              10.6450497
            ],
            [
              76.9692275,
              10.6451603
            ]
          ]
        ]
      }
    },
    {
      "type": "Feature",
      "properties": {
        "building": "yes"
      },
      "geometry": {
        "type": "Polygon",
        "coordinates": [
          [
            [
              76.9701502,
              10.6449235
            ],
            [
              76.9701477,
              10.6448067
            ],
            [
              76.9702134,
              10.6448053
            ],
            [
              76.9702159,
              10.6449221
            ],
            [
              76.9701502,
              10.6449235
            ]
          ]
        ]
      }
    },
    {
      "type": "Feature",
      "properties": {
        "building": "commercial",
        "height": "12.0m",
        "building:levels": "4"
      },
      "geometry": {
        "type": "Polygon",
        "coordinates": [
          [
            [
              76.9741466,
              10.6455484
            ],
            [
              76.9740646,
              10.6457438
            ],
            [
              76.9739527,
              10.6456985
            ],
            [
              76.9740346,
              10.6455031
            ],
            [
              76.9741466,
              10.6455484
            ]
          ]
        ]
      }
    },
    {
      "type": "Feature",
      "properties": {
        "building": "residential",
        "building:levels": "3"
      },
      "geometry": {
        "type": "Polygon",
        "coordinates": [
          [
            [
              76.9816244,
              10.6786079
            ],
            [
              76.9816326,
              10.6788185
            ],
            [
              76.9815094,
              10.6788231
            ],
            [
              76.9815012,
              10.6786125
            ],
            [
              76.9816244,
              10.6786079
            ]
          ]
        ]
      }
    },
    {
      "type": "Feature",
      "properties": {
        "building": "yes"
      },
      "geometry": {
        "type": "Polygon",
        "coordinates": [
          [
            [
              77.0130191,
              10.6645085
            ],
            [
              77.0134722,
              10.6643972
            ],
            [
              77.0133801,
              10.6642163
            ],
            [
              77.013005,
              10.6642929
            ],
            [
              77.0130191,
              10.6645085
            ]
          ]
        ]
      }
    },
    {
      "type": "Feature",
      "properties": {
        "building": "house",
        "building:levels": "2"
      },
      "geometry": {
        "type": "Polygon",
        "coordinates": [
          [
            [
              77.0086442,
              10.6594534
            ],
            [
              77.0088695,
              10.6593994
            ],
            [
              77.0087765,
              10.6590249
            ],
            [
              77.0085512,
              10.659079
            ],
            [
              77.0086442,
              10.6594534
            ]
          ]
        ]
      }
    },
    {
      "type": "Feature",
      "properties": {
        "building": "yes"
      },
      "geometry": {
        "type": "Polygon",
        "coordinates": [
          [
            [
              76.9744876,
              10.674367
            ],
            [
              76.9744602,
              10.6741249
            ],
            [
              76.9750177,
              10.674064
            ],
            [
              76.9750443,
              10.6742983
            ],
            [
              76.9747952,
              10.6743255
            ],
            [
              76.9747996,
              10.6743645
            ],
            [
              76.9747375,
              10.6743713
            ],
            [
              76.974734,
              10.6743401
            ],
            [
              76.9744876,
              10.674367
            ]
          ]
        ]
      }
    },
    {
      "type": "Feature",
      "properties": {
        "building": "yes"
      },
      "geometry": {
        "type": "Polygon",
        "coordinates": [
          [
            [
              76.9752487,
              10.6747516
            ],
            [
              76.9753397,
              10.6747476
            ],
            [
              76.9753437,
              10.6748371
            ],
            [
              76.9752527,
              10.6748411
            ],
            [
              76.9752487,
              10.6747516
            ]
          ]
        ]
      }
    },
    {
      "type": "Feature",
      "properties": {
        "building": "residential",
        "building:levels": "3"
      },
      "geometry": {
        "type": "Polygon",
        "coordinates": [
          [
            [
              76.9826027,
              10.6672579
            ],
            [
              76.9826063,
              10.6670313
            ],
            [
              76.9830902,
              10.6670387
            ],
            [
              76.9830866,
              10.6672654
            ],
            [
              76.9826027,
              10.6672579
            ]
          ]
        ]
      }
    },
    {
      "type": "Feature",
      "properties": {
        "building": "commercial",
        "height": "12.0m",
        "building:levels": "4"
      },
      "geometry": {
        "type": "Polygon",
        "coordinates": [
          [
            [
              76.982637,
              10.6677728
            ],
            [
              76.9829075,
              10.667688
            ],
            [
              76.9829775,
              10.6679037
            ],
            [
              76.9827069,
              10.6679885
            ],
            [
              76.982637,
              10.6677728
            ]
          ]
        ]
      }
    },
    {
      "type": "Feature",
      "properties": {
        "building": "yes"
      },
      "geometry": {
        "type": "Polygon",
        "coordinates": [
          [
            [
              76.9834496,
              10.6667837
            ],
            [
              76.9833074,
              10.6667845
            ],
            [
              76.9833064,
              10.6666064
            ],
            [
              76.9834486,
              10.6666056
            ],
            [
              76.9834496,
              10.6667837
            ]
          ]
        ]
      }
    },
    {
      "type": "Feature",
      "properties": {
        "building": "house",
        "building:levels": "2"
      },
      "geometry": {
        "type": "Polygon",
        "coordinates": [
          [
            [
              76.9814764,
              10.664326
            ],
            [
              76.9814842,
              10.6641339
            ],
            [
              76.9815993,
              10.6641384
            ],
            [
              76.9815916,
              10.6643305
            ],
            [
              76.9814764,
              10.664326
            ]
          ]
        ]
      }
    },
    {
      "type": "Feature",
      "properties": {
        "building": "yes"
      },
      "geometry": {
        "type": "Polygon",
        "coordinates": [
          [
            [
              76.9810494,
              10.6482904
            ],
            [
              76.9810795,
              10.6479726
            ],
            [
              76.9812763,
              10.6479905
            ],
            [
              76.9812462,
              10.6483084
            ],
            [
              76.9810494,
              10.6482904
            ]
          ]
        ]
      }
    },
    {
      "type": "Feature",
      "properties": {
        "building": "residential",
        "building:levels": "3"
      },
      "geometry": {
        "type": "Polygon",
        "coordinates": [
          [
            [
              77.0039131,
              10.6788242
            ],
            [
              77.0043181,
              10.6788295
            ],
            [
              77.0044844,
              10.6784605
            ],
            [
              77.003905,
              10.6784473
            ],
            [
              77.0039131,
              10.6788242
            ]
          ]
        ]
      }
    },
    {
      "type": "Feature",
      "properties": {
        "building": "house",
        "building:levels": "2"
      },
      "geometry": {
        "type": "Polygon",
        "coordinates": [
          [
            [
              77.0040338,
              10.6793092
            ],
            [
              77.0039909,
              10.6791273
            ],
            [
              77.0041652,
              10.6791194
            ],
            [
              77.0041786,
              10.6793092
            ],
            [
              77.0040338,
              10.6793092
            ]
          ]
        ]
      }
    },
    {
      "type": "Feature",
      "properties": {
        "building": "yes"
      },
      "geometry": {
        "type": "Polygon",
        "coordinates": [
          [
            [
              77.0097504,
              10.6582775
            ],
            [
              77.0098016,
              10.6582396
            ],
            [
              77.0099855,
              10.6584799
            ],
            [
              77.0102081,
              10.6583153
            ],
            [
              77.0099432,
              10.6579691
            ],
            [
              77.0096693,
              10.6581716
            ],
            [
              77.0097504,
              10.6582775
            ]
          ]
        ]
      }
    },
    {
      "type": "Feature",
      "properties": {
        "building": "commercial",
        "height": "12.0m",
        "building:levels": "4"
      },
      "geometry": {
        "type": "Polygon",
        "coordinates": [
          [
            [
              77.0098969,
              10.6582193
            ],
            [
              77.0099576,
              10.6582929
            ],
            [
              77.0100363,
              10.6582303
            ],
            [
              77.0099757,
              10.6581567
            ],
            [
              77.0098969,
              10.6582193
            ]
          ]
        ]
      }
    }
  ]
}